{
    "links": {
        "self": "http://www.neowsapp.com/rest/v1/neo/3648983?api_key=iIulBulltgU6a56xZRHN4H3l9WmuAYTsLGpBGhQ2"
    },
    "id": "3648983",
    "neo_reference_id": "3648983",
    "name": "(2013 TX68)",
    "designation": "2013 TX68",
    "nasa_jpl_url": "http://ssd.jpl.nasa.gov/sbdb.cgi?sstr=3648983",
    "absolute_magnitude_h": 25.2,
    "estimated_diameter": {
        "kilometers": {
            "estimated_diameter_min": 0.0242412481,
            "estimated_diameter_max": 0.0542050786
        },
        "meters": {
            "estimated_diameter_min": 24.2412481101,
            "estimated_diameter_max": 54.2050786336
        },
        "miles": {
            "estimated_diameter_min": 0.0150628086,
            "estimated_diameter_max": 0.0336814639
        },
        "feet": {
            "estimated_diameter_min": 79.5316564495,
            "estimated_diameter_max": 177.8381901842
        }
    },
    "is_potentially_hazardous_asteroid": false,
    "close_approach_data": [
        {
            "close_approach_date": "1936-10-07",
            "close_approach_date_full": "1936-Oct-07 17:40",
            "epoch_date_close_approach": -1048746000000,
            "relative_velocity": {
                "kilometers_per_second": "15.9273840067",
                "kilometers_per_hour": "57338.5824240793",
                "miles_per_hour": "35627.965284562"
            },
            "miss_distance": {
                "astronomical": "0.0523494946",
                "lunar": "20.3639533994",
                "kilometers": "7831372.887736502",
                "miles": "4866189.4642356476"
            },
            "orbiting_body": "Earth"
        },
        {
            "close_approach_date": "1937-03-24",
            "close_approach_date_full": "1937-Mar-24 05:16",
            "epoch_date_close_approach": -1034275440000,
            "relative_velocity": {
                "kilometers_per_second": "14.6599641332",
                "kilometers_per_hour": "52775.8708796482",
                "miles_per_hour": "32792.8737696347"
            },
            "miss_distance": {
                "astronomical": "0.0531105431",
                "lunar": "20.6600012659",
                "kilometers": "7945224.122303197",
                "miles": "4936933.3409582386"
            },
            "orbiting_body": "Mars"
        },
        {
            "close_approach_date": "2013-10-13",
            "close_approach_date_full": "2013-Oct-13 08:10",
            "epoch_date_close_approach": 1381651800000,
            "relative_velocity": {
                "kilometers_per_second": "14.0824833651",
                "kilometers_per_hour": "50696.9401145339",
                "miles_per_hour": "31501.1070395002"
            },
            "miss_distance": {
                "astronomical": "0.013916229",
                "lunar": "5.413413081",
                "kilometers": "2081838.21683223",
                "miles": "1293594.283175574"
            },
            "orbiting_body": "Earth"
        },
        {
            "close_approach_date": "2016-03-09",
            "close_approach_date_full": "2016-Mar-09 15:14",
            "epoch_date_close_approach": 1457536440000,
            "relative_velocity": {
                "kilometers_per_second": "16.0549802738",
                "kilometers_per_hour": "57797.9289857243",
                "miles_per_hour": "35913.3853744907"
            },
            "miss_distance": {
                "astronomical": "0.0570306661",
                "lunar": "22.1849291129",
                "kilometers": "8531666.173241207",
                "miles": "5301331.5340423766"
            },
            "orbiting_body": "Earth"
        }
    ],
    "orbital_data": {
        "orbit_id": "8",
        "orbit_determination_date": "2017-04-06 08:44:16",
        "first_observation_date": "2013-09-29",
        "last_observation_date": "2013-10-09",
        "data_arc_in_days": 10,
        "observations_used": 36,
        "orbit_uncertainty": "8",
        "minimum_orbit_intersection": "1.85954E-5",
        "jupiter_tisserand_invariant": "4.075",
        "epoch_osculation": "2456570.5",
        "eccentricity": ".5518450287694678",
        "semi_major_axis": "1.660744273634493",
        "inclination": "1.110778712731626",
        "ascending_node_longitude": "165.747601333473",
        "orbital_period": "781.7224281236329",
        "perihelion_distance": ".7442708021719371",
        "perihelion_argument": "286.9707262921233",
        "aphelion_distance": "2.577217745097048",
        "perihelion_time": "2456626.105652490909",
        "mean_anomaly": "334.3924004524515",
        "mean_motion": ".4605215189541222",
        "equinox": "J2000",
        "orbit_class": {
            "orbit_class_type": "APO",
            "orbit_class_description": "Near-Earth asteroid orbits which cross the Earth’s orbit similar to that of 1862 Apollo",
            "orbit_class_range": "a (semi-major axis) > 1.0 AU; q (perihelion) < 1.017 AU"
        }
    },
    "is_sentry_object": false
}